start=new Date('2021-09-27T00:00:00.000Z').valueOf();
sats=[{"OBJECT_NAME":"STARLINK-2438","TIME_SYSTEM":"UTC","ECCENTRICITY":"0.00007560","PERIAPSIS":"546.688","OBJECT_TYPE":"PAYLOAD","SEMIMAJOR_AXIS":"6925.346","DECAY_DATE":null,"GP_ID":"185581521","REV_AT_EPOCH":"2776","FILE":"3129566","SITE":"AFETR","RA_OF_ASC_NODE":"246.7150","APOAPSIS":"547.735","MEAN_MOTION_DOT":"-0.00000127","ELEMENT_SET_NO":"999","TLE_LINE1":"1 48103U 21027M   21269.65310013 -.00000127  00000-0  10318-4 0  9995","NORAD_CAT_ID":"48103","EPOCH":"2021-09-26T15:40:27.851232","PERIOD":"95.592","TLE_LINE2":"2 48103  53.0468 246.7150 0000756  46.1795 313.9256 15.06400804 27768","EPHEMERIS_TYPE":"0","CLASSIFICATION_TYPE":"U","INCLINATION":"53.0468","RCS_SIZE":"LARGE","CENTER_NAME":"EARTH","MEAN_ANOMALY":"313.9256","COUNTRY_CODE":"US","BSTAR":"0.00001031800000","OBJECT_ID":"2021-027M","MEAN_MOTION_DDOT":"0.0000000000000","MEAN_MOTION":"15.06400804","MEAN_ELEMENT_THEORY":"SGP4","REF_FRAME":"TEME","LAUNCH_DATE":"2021-04-07","ARG_OF_PERICENTER":"46.1795"},{"ECCENTRICITY":"0.00009670","TIME_SYSTEM":"UTC","OBJECT_NAME":"STARLINK-2439","DECAY_DATE":null,"SEMIMAJOR_AXIS":"6925.371","OBJECT_TYPE":"PAYLOAD","PERIAPSIS":"546.566","REV_AT_EPOCH":"2770","GP_ID":"185582772","APOAPSIS":"547.905","RA_OF_ASC_NODE":"251.6307","SITE":"AFETR","FILE":"3129566","TLE_LINE1":"1 48104U 21027N   21269.66554286 -.00000323  00000-0 -28201-5 0  9999","ELEMENT_SET_NO":"999","MEAN_MOTION_DOT":"-0.00000323","TLE_LINE2":"2 48104  53.0559 251.6307 0000967  19.1926 340.9100 15.06392779 27702","EPHEMERIS_TYPE":"0","CLASSIFICATION_TYPE":"U","PERIOD":"95.593","EPOCH":"2021-09-26T15:58:22.903104","NORAD_CAT_ID":"48104","INCLINATION":"53.0559","OBJECT_ID":"2021-027N","BSTAR":"-0.00000282010000","COUNTRY_CODE":"US","MEAN_ANOMALY":"340.9100","CENTER_NAME":"EARTH","RCS_SIZE":"LARGE","MEAN_MOTION_DDOT":"0.0000000000000","MEAN_ELEMENT_THEORY":"SGP4","MEAN_MOTION":"15.06392779","LAUNCH_DATE":"2021-04-07","REF_FRAME":"TEME","ARG_OF_PERICENTER":"19.1926"},{"ARG_OF_PERICENTER":"3.0551","LAUNCH_DATE":"2021-04-07","REF_FRAME":"TEME","MEAN_MOTION":"15.73213478","MEAN_ELEMENT_THEORY":"SGP4","MEAN_MOTION_DDOT":"0.0000000000000","OBJECT_ID":"2021-027P","BSTAR":"0.00016273000000","COUNTRY_CODE":"US","MEAN_ANOMALY":"357.0489","RCS_SIZE":"LARGE","CENTER_NAME":"EARTH","INCLINATION":"53.0453","EPHEMERIS_TYPE":"0","TLE_LINE2":"2 48105  53.0453 208.5414 0003658   3.0551 357.0489 15.73213478 28254","CLASSIFICATION_TYPE":"U","PERIOD":"91.532","EPOCH":"2021-09-26T03:14:23.192160","NORAD_CAT_ID":"48105","TLE_LINE1":"1 48105U 21027P   21269.13499065  .00022299  00000-0  16273-3 0  9993","ELEMENT_SET_NO":"999","MEAN_MOTION_DOT":"0.00022299","APOAPSIS":"352.183","RA_OF_ASC_NODE":"208.5414","SITE":"AFETR","FILE":"3129258","REV_AT_EPOCH":"2825","GP_ID":"185551372","DECAY_DATE":null,"SEMIMAJOR_AXIS":"6727.857","OBJECT_TYPE":"PAYLOAD","PERIAPSIS":"347.261","ECCENTRICITY":"0.00036580","OBJECT_NAME":"STARLINK-2440","TIME_SYSTEM":"UTC"},{"ARG_OF_PERICENTER":"47.6776","MEAN_MOTION_DDOT":"0.0000000000000","MEAN_MOTION":"15.06391806","MEAN_ELEMENT_THEORY":"SGP4","REF_FRAME":"TEME","LAUNCH_DATE":"2021-04-07","ELEMENT_SET_NO":"999","MEAN_MOTION_DOT":"0.00000028","TLE_LINE1":"1 48106U 21027Q   21269.22458430  .00000028  00000-0  20746-4 0  9992","EPOCH":"2021-09-26T05:23:24.083520","NORAD_CAT_ID":"48106","CLASSIFICATION_TYPE":"U","TLE_LINE2":"2 48106  53.0549 248.6054 0001077  47.6776 312.4304 15.06391806 27700","EPHEMERIS_TYPE":"0","PERIOD":"95.593","INCLINATION":"53.0549","COUNTRY_CODE":"US","MEAN_ANOMALY":"312.4304","CENTER_NAME":"EARTH","RCS_SIZE":"LARGE","OBJECT_ID":"2021-027Q","BSTAR":"0.00002074600000","OBJECT_NAME":"STARLINK-2442","TIME_SYSTEM":"UTC","ECCENTRICITY":"0.00010770","PERIAPSIS":"546.493","DECAY_DATE":null,"SEMIMAJOR_AXIS":"6925.374","OBJECT_TYPE":"PAYLOAD","REV_AT_EPOCH":"2770","GP_ID":"185551624","FILE":"3129258","SITE":"AFETR","APOAPSIS":"547.985","RA_OF_ASC_NODE":"248.6054"},{"MEAN_MOTION":"15.06408152","MEAN_ELEMENT_THEORY":"SGP4","MEAN_MOTION_DDOT":"0.0000000000000","LAUNCH_DATE":"2021-04-07","REF_FRAME":"TEME","ARG_OF_PERICENTER":"59.9010","DECAY_DATE":null,"SEMIMAJOR_AXIS":"6925.324","OBJECT_TYPE":"PAYLOAD","PERIAPSIS":"546.385","ECCENTRICITY":"0.00011600","TIME_SYSTEM":"UTC","OBJECT_NAME":"STARLINK-2443","APOAPSIS":"547.992","RA_OF_ASC_NODE":"246.7452","SITE":"AFETR","FILE":"3129566","REV_AT_EPOCH":"2776","GP_ID":"185582021","EPHEMERIS_TYPE":"0","TLE_LINE2":"2 48107  53.0543 246.7452 0001160  59.9010 300.2094 15.06408152 27766","CLASSIFICATION_TYPE":"U","PERIOD":"95.592","EPOCH":"2021-09-26T15:19:13.764000","NORAD_CAT_ID":"48107","TLE_LINE1":"1 48107U 21027R   21269.63835375  .00000002  00000-0  19015-4 0  9994","ELEMENT_SET_NO":"999","MEAN_MOTION_DOT":"0.00000002","OBJECT_ID":"2021-027R","BSTAR":"0.00001901500000","MEAN_ANOMALY":"300.2094","COUNTRY_CODE":"US","RCS_SIZE":"LARGE","CENTER_NAME":"EARTH","INCLINATION":"53.0543"},{"LAUNCH_DATE":"2021-04-07","REF_FRAME":"TEME","MEAN_MOTION_DDOT":"0.0000000000000","MEAN_ELEMENT_THEORY":"SGP4","MEAN_MOTION":"15.06404058","ARG_OF_PERICENTER":"60.3369","REV_AT_EPOCH":"2762","GP_ID":"185582273","APOAPSIS":"547.602","RA_OF_ASC_NODE":"256.5779","SITE":"AFETR","FILE":"3129566","ECCENTRICITY":"0.00005790","OBJECT_NAME":"STARLINK-2444","TIME_SYSTEM":"UTC","DECAY_DATE":null,"SEMIMAJOR_AXIS":"6925.336","OBJECT_TYPE":"PAYLOAD","PERIAPSIS":"546.800","INCLINATION":"53.0552","BSTAR":"0.00002815600000","OBJECT_ID":"2021-027S","COUNTRY_CODE":"US","MEAN_ANOMALY":"299.7677","RCS_SIZE":"LARGE","CENTER_NAME":"EARTH","TLE_LINE1":"1 48108U 21027S   21269.67798067  .00000138  00000-0  28156-4 0  9991","ELEMENT_SET_NO":"999","MEAN_MOTION_DOT":"0.00000138","CLASSIFICATION_TYPE":"U","TLE_LINE2":"2 48108  53.0552 256.5779 0000579  60.3369 299.7677 15.06404058 27629","EPHEMERIS_TYPE":"0","PERIOD":"95.592","EPOCH":"2021-09-26T16:16:17.529888","NORAD_CAT_ID":"48108"},{"INCLINATION":"53.0546","RCS_SIZE":"LARGE","CENTER_NAME":"EARTH","COUNTRY_CODE":"US","MEAN_ANOMALY":"296.8259","BSTAR":"0.00008184300000","OBJECT_ID":"2021-027T","MEAN_MOTION_DOT":"0.00000938","ELEMENT_SET_NO":"999","TLE_LINE1":"1 48109U 21027T   21269.69179191  .00000938  00000-0  81843-4 0  9995","NORAD_CAT_ID":"48109","EPOCH":"2021-09-26T16:36:10.821024","PERIOD":"95.592","EPHEMERIS_TYPE":"0","TLE_LINE2":"2 48109  53.0546 266.5043 0000802  63.2812 296.8259 15.06398083 27491","CLASSIFICATION_TYPE":"U","GP_ID":"185583023","REV_AT_EPOCH":"2749","SITE":"AFETR","FILE":"3129566","RA_OF_ASC_NODE":"266.5043","APOAPSIS":"547.775","TIME_SYSTEM":"UTC","OBJECT_NAME":"STARLINK-2445","ECCENTRICITY":"0.00008020","PERIAPSIS":"546.664","OBJECT_TYPE":"PAYLOAD","SEMIMAJOR_AXIS":"6925.354","DECAY_DATE":null,"ARG_OF_PERICENTER":"63.2812","REF_FRAME":"TEME","LAUNCH_DATE":"2021-04-07","MEAN_MOTION_DDOT":"0.0000000000000","MEAN_ELEMENT_THEORY":"SGP4","MEAN_MOTION":"15.06398083"},{"ARG_OF_PERICENTER":"57.4682","REF_FRAME":"TEME","LAUNCH_DATE":"2021-04-07","MEAN_ELEMENT_THEORY":"SGP4","MEAN_MOTION":"15.06391367","MEAN_MOTION_DDOT":"0.0000000000000","CENTER_NAME":"EARTH","RCS_SIZE":"LARGE","MEAN_ANOMALY":"302.6385","COUNTRY_CODE":"US","OBJECT_ID":"2021-027U","BSTAR":"-0.00002686900000","INCLINATION":"53.0567","NORAD_CAT_ID":"48110","EPOCH":"2021-09-26T16:00:22.229280","PERIOD":"95.593","TLE_LINE2":"2 48110  53.0567 256.6207 0000814  57.4682 302.6385 15.06391367 27631","CLASSIFICATION_TYPE":"U","EPHEMERIS_TYPE":"0","MEAN_MOTION_DOT":"-0.00000681","ELEMENT_SET_NO":"999","TLE_LINE1":"1 48110U 21027U   21269.66692395 -.00000681  00000-0 -26869-4 0  9994","FILE":"3129566","SITE":"AFETR","RA_OF_ASC_NODE":"256.6207","APOAPSIS":"547.804","GP_ID":"185581272","REV_AT_EPOCH":"2763","PERIAPSIS":"546.676","OBJECT_TYPE":"PAYLOAD","SEMIMAJOR_AXIS":"6925.375","DECAY_DATE":null,"OBJECT_NAME":"STARLINK-2447","TIME_SYSTEM":"UTC","ECCENTRICITY":"0.00008140"},{"RA_OF_ASC_NODE":"256.6321","APOAPSIS":"547.709","FILE":"3129566","SITE":"AFETR","GP_ID":"185581522","REV_AT_EPOCH":"2763","OBJECT_TYPE":"PAYLOAD","SEMIMAJOR_AXIS":"6925.341","DECAY_DATE":null,"PERIAPSIS":"546.704","ECCENTRICITY":"0.00007260","OBJECT_NAME":"STARLINK-2448","TIME_SYSTEM":"UTC","BSTAR":"0.00015334000000","OBJECT_ID":"2021-027V","CENTER_NAME":"EARTH","RCS_SIZE":"LARGE","COUNTRY_CODE":"US","MEAN_ANOMALY":"298.0033","INCLINATION":"53.0609","PERIOD":"95.592","EPHEMERIS_TYPE":"0","TLE_LINE2":"2 48111  53.0609 256.6321 0000726  62.1030 298.0033 15.06402327 27635","CLASSIFICATION_TYPE":"U","NORAD_CAT_ID":"48111","EPOCH":"2021-09-26T15:53:41.201952","TLE_LINE1":"1 48111U 21027V   21269.66228243  .00002004  00000-0  15334-3 0  9995","MEAN_MOTION_DOT":"0.00002004","ELEMENT_SET_NO":"999","LAUNCH_DATE":"2021-04-07","REF_FRAME":"TEME","MEAN_MOTION":"15.06402327","MEAN_ELEMENT_THEORY":"SGP4","MEAN_MOTION_DDOT":"0.0000000000000","ARG_OF_PERICENTER":"62.1030"},{"CENTER_NAME":"EARTH","RCS_SIZE":"LARGE","MEAN_ANOMALY":"290.4740","COUNTRY_CODE":"US","OBJECT_ID":"2021-027W","BSTAR":"-0.00001681300000","INCLINATION":"53.0572","NORAD_CAT_ID":"48112","EPOCH":"2021-09-26T16:52:45.425856","PERIOD":"95.593","TLE_LINE2":"2 48112  53.0572 271.4602 0000905  69.6347 290.4740 15.06389937 27423","CLASSIFICATION_TYPE":"U","EPHEMERIS_TYPE":"0","MEAN_MOTION_DOT":"-0.00000532","ELEMENT_SET_NO":"999","TLE_LINE1":"1 48112U 21027W   21269.70330354 -.00000532  00000-0 -16813-4 0  9998","FILE":"3129566","SITE":"AFETR","RA_OF_ASC_NODE":"271.4602","APOAPSIS":"547.871","GP_ID":"185582773","REV_AT_EPOCH":"2742","PERIAPSIS":"546.618","SEMIMAJOR_AXIS":"6925.379","OBJECT_TYPE":"PAYLOAD","DECAY_DATE":null,"TIME_SYSTEM":"UTC","OBJECT_NAME":"STARLINK-2449","ECCENTRICITY":"0.00009050","ARG_OF_PERICENTER":"69.6347","REF_FRAME":"TEME","LAUNCH_DATE":"2021-04-07","MEAN_ELEMENT_THEORY":"SGP4","MEAN_MOTION":"15.06389937","MEAN_MOTION_DDOT":"0.0000000000000"}];
